[
    {
        "Cliente": "ANTONIO DE LUCA",
        "name": "MOOD",
        "address ": "SS TIBURTINA KM126",
        "zipCode": 67043,
        "town": "Celano",
        "province": "AQ",
        "region": "ABRUZZO"
    },
    {
        "Cliente": "BALDUCCI CALZATURE S.R.L.",
        "name": "BALDUCCI",
        "address ": "Corso De Michetti, 16/18",
        "zipCode": 64100,
        "town": "Teramo",
        "province": "TE",
        "region": "ABRUZZO"
    },
    {
        "Cliente": "DAUTILIO 1908 SRL",
        "name": "F.LLI DAUTILIO",
        "address ": "C.SO TRENTO e TRIESTE",
        "zipCode": 66034,
        "town": "Lanciano",
        "province": "CH",
        "region": "ABRUZZO"
    },
    {
        "Cliente": "DI ZITTI ELISA",
        "name": "DI.VE. CALZ.",
        "address ": "C.SO UMBERTO 15",
        "zipCode": 67043,
        "town": "Celano",
        "province": "AQ",
        "region": "ABRUZZO"
    },
    {
        "Cliente": "DISIDORO AMERIGO",
        "name": "TGM CALZ.",
        "address ": "VIA LEONARDO DA VINCI 9",
        "zipCode": 64016,
        "town": "SantEgidio alla Vibrata",
        "province": "TE",
        "region": "ABRUZZO"
    },
    {
        "Cliente": "MARGIOTTA G.&M.SNC",
        "name": "MARGIOTTA",
        "address ": "C.SO OVIDIO 228",
        "zipCode": 67039,
        "town": "Sulmona",
        "province": "AQ",
        "region": "ABRUZZO"
    },
    {
        "Cliente": "MAZZITTI LEATHER SAS DI MAZZITTI R. & C.",
        "name": "MAZZITTI LEATHER",
        "address ": "C.SO FEDERICO II 24",
        "zipCode": 67100,
        "town": "LAQUILA",
        "province": "AQ",
        "region": "ABRUZZO"
    },
    {
        "Cliente": "PIERGIGLI CALZATURE S.R.L.",
        "name": "PIERGIGLI",
        "address ": "Viale della Vittoria 106",
        "zipCode": 64011,
        "town": "Alba Adriatica",
        "province": "TE",
        "region": "ABRUZZO"
    },
    {
        "Cliente": "G.R.G. SRL",
        "name": "TOUT LE MONDE",
        "address ": "VIA TIBURTINA VALERIA KM 69,00",
        "zipCode": 67061,
        "town": "CARSOLI",
        "province": "AQ",
        "region": "ABRUZZO"
    },
    {
        "Cliente": "CANNIZZARO CONCETTA",
        "name": "CANNIZZARO",
        "address ": "VIA TRIESTE , 11",
        "zipCode": 89024,
        "town": "Polistena",
        "province": "RC",
        "region": "CALABRIA"
    },
    {
        "Cliente": "CEMME DI ROMEO MARIA",
        "name": "CEMME",
        "address ": "C.SO GARIBALDI 139",
        "zipCode": 87012,
        "town": "Castrovillari",
        "province": "CS",
        "region": "CALABRIA"
    },
    {
        "Cliente": "EFFELLE FASHION SAS DI PENNESTRI T.M. & C.",
        "name": "EFFELLE FASHION",
        "address ": "VIA S. PERTINI, 16/B",
        "zipCode": 89063,
        "town": "MELITO DI PORTO SALVO",
        "province": "RC",
        "region": "CALABRIA"
    },
    {
        "Cliente": "EMPORIO GIGLIO SRL",
        "name": "GIGLIO BOUTIQUE",
        "address ": "P.ZZA I MAGGIO,18",
        "zipCode": 87100,
        "town": "COSENZA",
        "province": "CS",
        "region": "CALABRIA"
    },
    {
        "Cliente": "FA.MI SRL",
        "name": "FA.MI ",
        "address ": "VIA FONTANELLE 153",
        "zipCode": 87064,
        "town": "Corigliano Calabro",
        "province": "CS",
        "region": "CALABRIA"
    },
    {
        "Cliente": "G&G COLLECTION SRL",
        "name": "G&G",
        "address ": "VIA VITTORIO VENETO 14",
        "zipCode": 88900,
        "town": "Crotone",
        "province": "KR",
        "region": "CALABRIA"
    },
    {
        "Cliente": "GIGLIO BOUTIQUE S.R.L.",
        "name": "GIGLIO BOUTIQUE",
        "address ": "VIA XX SETTEMBRE 94",
        "zipCode": 88046,
        "town": "LAMEZIA TERME",
        "province": "CZ",
        "region": "CALABRIA"
    },
    {
        "Cliente": "IL QUADRIFOGLIO BY PINO RITACCO",
        "name": "IL QUADRIFOGLIO",
        "address ": "VIA DELLA RESISTENZA",
        "zipCode": 87041,
        "town": "Acri",
        "province": "CS",
        "region": "CALABRIA"
    },
    {
        "Cliente": "PASQUALINO SRL",
        "name": "PASQUALINO B.QUE",
        "address ": "C.DA PETRARO",
        "zipCode": 87040,
        "town": "ROSE",
        "province": "CS",
        "region": "CALABRIA"
    },
    {
        "Cliente": "PIEMMEFFE SAS",
        "name": "M&F",
        "address ": "C.SO VITTORIO EMANUELE III, 133",
        "zipCode": 89900,
        "town": "Vibo Valentia",
        "province": "VV",
        "region": "CALABRIA"
    },
    {
        "Cliente": "SCIALB SAS DI SCIARRONE E ALBANESE",
        "name": "SCIALB",
        "address ": "C.SO GARIBALDI 40",
        "zipCode": 89100,
        "town": "Reggio Calabria",
        "province": "RC",
        "region": "CALABRIA"
    },
    {
        "Cliente": "SPATARELLA VOMERO S.R.L.",
        "name": "SPATARELLA",
        "address ": "VIA LUCA GIORDANO, 69/B/C",
        "zipCode": 80129,
        "town": "NAPOLI",
        "province": "NA",
        "region": "CAMPANIA"
    },
    {
        "Cliente": "LA COMPAGNIA DELLE PELLI S.P.A.",
        "name": "LA MARTINA STORE CAPRI ",
        "address ": "via roma 21",
        "zipCode": 80073,
        "town": "Capri",
        "province": "NA",
        "region": "CAMPANIA"
    },
    {
        "Cliente": "DELLA MARTIRA SRL",
        "name": "DELLA MARTIRA",
        "address ": "VIA ARIOSTO, 4/B",
        "zipCode": 41012,
        "town": "CARPI",
        "province": "MO",
        "region": "EMILIA ROMAGNA"
    },
    {
        "Cliente": "LA MARTINA STORE MILANO MARITTIMA",
        "name": "LA MARTINA STORE MILANO MARITTIMA",
        "address ": "VIA MATTEOTTI 44",
        "zipCode": 48016,
        "town": "CERVIA MILANO MARITTIMA",
        "province": "RA",
        "region": "EMILIA ROMAGNA"
    },
    {
        "Cliente": "NATI CON LA CAMICIA TREVISANI DAVIDE",
        "name": "NATI CON LA CAMICIA",
        "address ": "VIA GARIBALDI 56",
        "zipCode": 44100,
        "town": "Ferrara",
        "province": "FE",
        "region": "EMILIA ROMAGNA"
    },
    {
        "Cliente": "ENNIO SHOES SRL",
        "name": "ENNIO SHOES",
        "address ": "VIA FLAMINIA 467",
        "zipCode": 100,
        "town": "ROMA",
        "province": "RM",
        "region": "LAZIO"
    },
    {
        "Cliente": "GOTHA SRL",
        "name": "JADICICCO DAL 1890",
        "address ": "VIA DELLA SAPIENZA, 12",
        "zipCode": 1100,
        "town": "Viterbo",
        "province": "VT",
        "region": "LAZIO"
    },
    {
        "Cliente": "GRUPPO LANGOLO DELLO SPORT SRL",
        "name": "LANGOLO DELLO SPORT",
        "address ": "VIA DEL PONTE PISANO, 50",
        "zipCode": 148,
        "town": "ROMA",
        "province": "RM",
        "region": "LAZIO"
    },
    {
        "Cliente": "HASSAN STORE SRL",
        "name": "HASSAN",
        "address ": "VIA DELLA BALDUINA, 65",
        "zipCode": 136,
        "town": "ROMA",
        "province": "RM",
        "region": "LAZIO"
    },
    {
        "Cliente": "MISHELLE S.R.L.",
        "name": "RE MISHELLE",
        "address ": "VIA TARANTO , 1",
        "zipCode": 100,
        "town": "ROMA",
        "province": "RM",
        "region": "LAZIO"
    },
    {
        "Cliente": "PIERROT SRL",
        "name": "PIERROT",
        "address ": "VIA C.COLOMBO 440",
        "zipCode": 145,
        "town": "ROMA",
        "province": "RM",
        "region": "LAZIO"
    },
    {
        "Cliente": "SABBADINI S.R.L.",
        "name": "SABBADINI",
        "address ": "VIA APPIA NUOVA, 1",
        "zipCode": 183,
        "town": "ROMA",
        "province": "RM",
        "region": "LAZIO"
    },
    {
        "Cliente": "SERPICO 80 SHOES DI LOCONTE PINA",
        "name": "SERPICO 80 SHOES",
        "address ": "C.SO BORGHESE, 26",
        "zipCode": 31,
        "town": "Artena",
        "province": "RM",
        "region": "LAZIO"
    },
    {
        "Cliente": "VIMAR",
        "name": "CALZATURE LA MODERNA",
        "address ": "VIA C.LORENZINI,11",
        "zipCode": 100,
        "town": "ROMA",
        "province": "RM",
        "region": "LAZIO"
    },
    {
        "Cliente": "CONTI EMANUELA DI DURETTO EMANUELA E C.SAS",
        "name": "CONTI EMANUELA ",
        "address ": "VIA CARLI,3",
        "zipCode": 18038,
        "town": "SANREMO",
        "province": "IM",
        "region": "LIGURIA"
    },
    {
        "Cliente": "MAXMODA S.P.A.",
        "name": "RITMO SHOES",
        "address ": "VIA SANTA MARIA, SNC",
        "zipCode": 20015,
        "town": "Parabiago",
        "province": "MI",
        "region": "LOMBARDIA"
    },
    {
        "Cliente": "VERGELIO CALZATURE S.P.A.",
        "name": "MARILENA ",
        "address ": "VIA CADUTI DI MARCINELLE 3",
        "zipCode": 20134,
        "town": "Milano",
        "province": "MI",
        "region": "LOMBARDIA"
    },
    {
        "Cliente": "LM RETAIL S.R.L. UNIPERSONALE",
        "name": "LA MARTINA STORE MILANO",
        "address ": "PIAZZA DELLA REPUBBLICA, 32",
        "zipCode": 20124,
        "town": "Milano",
        "province": "MI",
        "region": "LOMBARDIA"
    },
    {
        "Cliente": "CAMERUCCI LUCA",
        "name": "CAMERUCCI",
        "address ": "VIA AURELIO SAFFI",
        "zipCode": 60033,
        "town": "Chiaravalle",
        "province": "AN",
        "region": "MARCHE"
    },
    {
        "Cliente": "CARESSE DI MARISA ORTOLANI",
        "name": "CARESSE",
        "address ": "P.ZZA GARIBALDI 21",
        "zipCode": 62024,
        "town": "Matelica",
        "province": "MC",
        "region": "MARCHE"
    },
    {
        "Cliente": "I GEMELLI SRL",
        "name": "MODIGLIANI BOUTIQUE",
        "address ": "VIA RAINERIO16",
        "zipCode": 61032,
        "town": "Fano",
        "province": "PU",
        "region": "MARCHE"
    },
    {
        "Cliente": "MANCINI PIERO SRL",
        "name": "MANCINI",
        "address ": "CORSO XI SETTEMBRE,147/153",
        "zipCode": 61100,
        "town": "PESARO",
        "province": "PU",
        "region": "MARCHE"
    },
    {
        "Cliente": "ROSSO PICCANTE SNC DI ESPOSTI LARA & C.",
        "name": "ROSSO PICCANTE",
        "address ": "C.so Garibaldi 33",
        "zipCode": 61034,
        "town": "Fossombrone",
        "province": "PU",
        "region": "MARCHE"
    },
    {
        "Cliente": "SHYLOCK SRL",
        "name": "SHYLOCK",
        "address ": "VIA DON BOSCO 84",
        "zipCode": 62010,
        "town": "MONTECOSARO",
        "province": "MC",
        "region": "MARCHE"
    },
    {
        "Cliente": "TUTTI TIPI SRL",
        "name": "TUTTI TIPI",
        "address ": "C.SO MATTEOTTI 114",
        "zipCode": 60100,
        "town": "Ancona",
        "province": "AN",
        "region": "MARCHE"
    },
    {
        "Cliente": "CALZOLERIA PARMIGIANA 1887 SNC DI ANTONELLA MOTTA &",
        "name": "CALZOLERIA PARMIGIANA",
        "address ": "via migliara 39",
        "zipCode": 15121,
        "town": "Alessandria",
        "province": "AL",
        "region": "PIEMONTE"
    },
    {
        "Cliente": "E.LE..SHOES DI GAGLIARDI RITA",
        "name": "E.LE..SHOES",
        "address ": "via cavour 35",
        "zipCode": 14100,
        "town": "Asti",
        "province": "AT",
        "region": "PIEMONTE"
    },
    {
        "Cliente": "GALLES SRL",
        "name": "GALLES ",
        "address ": "via santa teresa 6",
        "zipCode": 10121,
        "town": "Torino",
        "province": "TO",
        "region": "PIEMONTE"
    },
    {
        "Cliente": "MADDALENA FERRARA",
        "name": "MADDALENA FERRARA",
        "address ": "CORSO VITTORIO EMANUELE 90",
        "zipCode": 10121,
        "town": "Torino",
        "province": "TO",
        "region": "PIEMONTE"
    },
    {
        "Cliente": "PRIMO PIANO DI BORGHESI PAOLA",
        "name": "PRIMO PIANO ",
        "address ": "VIA LAMARMORA14",
        "zipCode": 13900,
        "town": "Biella",
        "province": "BI",
        "region": "PIEMONTE"
    },
    {
        "Cliente": "VI.VI. SRL",
        "name": "VANTO",
        "address ": "VIA BAVA 1/bis",
        "zipCode": 10100,
        "town": "Torino",
        "province": "TO",
        "region": "PIEMONTE"
    },
    {
        "Cliente": "IMPRONTE SNC",
        "name": "IMPRONTE",
        "address ": "Via Milano n 1/3",
        "zipCode": 70024,
        "town": "Gravina in Puglia",
        "province": "BA",
        "region": "PUGLIA"
    },
    {
        "Cliente": "MARY RAHO DI MARIA DONATA RAHO",
        "name": "RAHO",
        "address ": "C.so Roma 30",
        "zipCode": 73014,
        "town": "Gallipoli",
        "province": "LE",
        "region": "PUGLIA"
    },
    {
        "Cliente": "MICOCCIO CARMELO 1945",
        "name": "MICOCCIO",
        "address ": "Piazza Plebiscito, 3",
        "zipCode": 73054,
        "town": "PRESICCE",
        "province": "LE",
        "region": "PUGLIA"
    },
    {
        "Cliente": "PASSI DANGELO DI FRANCA GENIO",
        "name": "PASSI DANGELO",
        "address ": "C.so Mazzini 35",
        "zipCode": 70018,
        "town": "Rutigliano",
        "province": "BA",
        "region": "PUGLIA"
    },
    {
        "Cliente": "DE RISO CALZATURE DI CAMILLO DE RISO",
        "name": "DE RISO",
        "address ": "VIA BAYLLE,23",
        "zipCode": 9124,
        "town": "Cagliari",
        "province": "CA",
        "region": "SARDEGNA"
    },
    {
        "Cliente": "F.LLI COLOMBINO DI CARLO E PAOLO COLOMBINO SAS",
        "name": "COLOMBINO",
        "address ": "VIA LUZZATTI, 16",
        "zipCode": 7100,
        "town": "Sassari",
        "province": "SS",
        "region": "SARDEGNA"
    },
    {
        "Cliente": "RAGGIO MARCO GIUSEPPE & C. SNC",
        "name": "RAGGIO",
        "address ": "VIA UMBRIA 2",
        "zipCode": 9170,
        "town": "ORISTANO",
        "province": "OR",
        "region": "SARDEGNA"
    },
    {
        "Cliente": "GAIA SRL",
        "name": "GAIA CALZATURE",
        "address ": "VIA ROMA, 97",
        "zipCode": 90135,
        "town": "Palermo",
        "province": "PA",
        "region": "SICILIA"
    },
    {
        "Cliente": "TOMASELLO ROSALBA",
        "name": "TOMASELLO ROSALBA",
        "address ": "VIA E. BELLIA 24",
        "zipCode": 95047,
        "town": "Patern",
        "province": "CT",
        "region": "SICILIA"
    },
    {
        "Cliente": "V.M.P. GROUP SRL",
        "name": "TRINCILLA",
        "address ": "VIA XI MAGGIO 121",
        "zipCode": 91025,
        "town": "Marsala",
        "province": "TP",
        "region": "SICILIA"
    },
    {
        "Cliente": "CALZATURE ALADINO SNC",
        "name": "ALADINO",
        "address ": "Via Trento, 52",
        "zipCode": 52025,
        "town": "Montevarchi",
        "province": "AR",
        "region": "TOSCANA"
    },
    {
        "Cliente": "CUOIERIA FIORENTINA SRL",
        "name": "CUOIERIA FIORENTINA",
        "address ": "Via dei Ciliegi, 25",
        "zipCode": 50066,
        "town": "Reggello",
        "province": "FI",
        "region": "TOSCANA"
    },
    {
        "Cliente": "FRANCESCA PIU DI BOLOGNOSI GIULIANA",
        "name": "FRANCESCA PIU",
        "address ": "Via della Pace, 126",
        "zipCode": 58100,
        "town": "Grosseto",
        "province": "GR",
        "region": "TOSCANA"
    },
    {
        "Cliente": "LA MARTINA STORE FORTE DEI MARMI",
        "name": "LA MARTINA STORE FORTE DEI MARMI",
        "address ": "VIA IV^ NOVEMBRE 10",
        "zipCode": 55042,
        "town": "FORTE DEI MARMI",
        "province": "LU",
        "region": "TOSCANA"
    },
    {
        "Cliente": "MASSETANI SNC",
        "name": "MASSETANI",
        "address ": "Via Bruceto, 108",
        "zipCode": 51010,
        "town": "Massa e Cozzile",
        "province": "PT",
        "region": "TOSCANA"
    },
    {
        "Cliente": "MORI ROMAS DI MORI ROSSELLA & C. SNC",
        "name": "MORI",
        "address ": "VIA BANCHI DI SOPRA,32",
        "zipCode": 53100,
        "town": "SIENA",
        "province": "SI",
        "region": "TOSCANA"
    },
    {
        "Cliente": "ROSE ROSA SRL",
        "name": "SCARPELLI",
        "address ": "Via Cesare Guasti, 32/34",
        "zipCode": 59100,
        "town": "Prato",
        "province": "PO",
        "region": "TOSCANA"
    },
    {
        "Cliente": "TEMY SRL",
        "name": "TEMY",
        "address ": "Via II Giugno, 5",
        "zipCode": 50053,
        "town": "Empoli",
        "province": "FI",
        "region": "TOSCANA"
    },
    {
        "Cliente": "VANNINI MAURIZIO OTTAVIO",
        "name": "VANNINI",
        "address ": "Viale della Resistenza, 33",
        "zipCode": 54011,
        "town": "Aulla",
        "province": "MS",
        "region": "TOSCANA"
    },
    {
        "Cliente": "NARDIS SPORT SAS DI MANZONI F.& C.",
        "name": "NARDIS SPORT ",
        "address ": "VIA N.BOLOGNINI 45",
        "zipCode": 38086,
        "town": "PINZOLO",
        "province": "TN",
        "region": "TRENTINO ALTO ADIGE"
    },
    {
        "Cliente": "CALZATURE NELLA DI MARSILI F. & C. SAS",
        "name": "CALZ.NELLA",
        "address ": "Via Leonardo da Vinci 52/54 fraz. Casamo",
        "zipCode": 6024,
        "town": "Gubbio",
        "province": "PG",
        "region": "UMBRIA"
    },
    {
        "Cliente": "DIGIE CALZATURE DI LENTICCHIA D. SNC",
        "name": "DIGIE CALZ.",
        "address ": "LOC.PONTE RIO 79",
        "zipCode": 6059,
        "town": "Todi",
        "province": "PG",
        "region": "UMBRIA"
    },
    {
        "Cliente": "GALEOTTI SAS DI GALEOTTI GIULIANO & C.",
        "name": "GALEOTTI",
        "address ": "VIA CARDUCCI 2",
        "zipCode": 6012,
        "town": "Citt di Castello",
        "province": "PG",
        "region": "UMBRIA"
    },
    {
        "Cliente": "PROFUMERIA DURANTI SAS DI SILVIA PELLICCIA",
        "name": "DURANTI CALZ.",
        "address ": "VIA DUOMO 13/15",
        "zipCode": 5018,
        "town": "Orvieto",
        "province": "TR",
        "region": "UMBRIA"
    },
    {
        "Cliente": "BERTOLDO di Bertoldo Renzo",
        "name": "BERTOLDO",
        "address ": "Via Roma, 85",
        "zipCode": 35010,
        "town": "MASSANZAGO",
        "province": "PD",
        "region": "VENETO"
    },
    {
        "Cliente": "BIDON",
        "name": "BIDON",
        "address ": "VIA NOBEL, 2",
        "zipCode": 30025,
        "town": "Fossalta di Portogruaro",
        "province": "VE",
        "region": "VENETO"
    },
    {
        "Cliente": "CALZATUREDESIDERIOdi BERTASSELLO STEFANIA",
        "name": "CALZATURE DESIDERIO",
        "address ": "Via XXV Aprile 14",
        "zipCode": 37054,
        "town": "NOGARA",
        "province": "VR",
        "region": "VENETO"
    },
    {
        "Cliente": "COM.CA S.R.L",
        "name": "COM.CA",
        "address ": "VIA DANTONA, 10/12",
        "zipCode": 37048,
        "town": "S.PIETRO DI LEGNAGO",
        "province": "VR",
        "region": "VENETO"
    },
    {
        "Cliente": "LE FOLLIE DI BERSAN M.& BERTASSELLO E.SNC",
        "name": "LE FOLLIE",
        "address ": "VIA G.PASCOLI, 36",
        "zipCode": 37010,
        "town": "AFFI",
        "province": "VR",
        "region": "VENETO"
    },
    {
        "Cliente": "MAGIC DI DALLICANI ANTONELLA E C. SAS",
        "name": "NEXT",
        "address ": "CORSO UMBERTO I, 18",
        "zipCode": 37011,
        "town": "Bardolino",
        "province": "VR",
        "region": "VENETO"
    },
    {
        "Cliente": "PASS COMPANY SRL",
        "name": "GALANTE",
        "address ": "DELLINDUSTRIA, 1/3",
        "zipCode": 35044,
        "town": "Montagnana",
        "province": "PD",
        "region": "VENETO"
    }
]